{
  "type": "FeatureCollection",
  "features": [
    {
      "type": "Feature",
      "properties": {
        "norad_id": 46277,
        "name": "NEMO-HD",
        "group": "resource",
        "lat": -72.76073305933708,
        "lon": -150.25904547279634,
        "alt_km": 452.8765797877086,
        "timestamp": "2025-12-20T20:38:44.101891+00:00",
        "meta_object_name": "NEMO-HD",
        "meta_object_id": "2020-061F",
        "meta_epoch": "2025-12-20T14:52:05.224224",
        "meta_mean_motion": 15.40477778,
        "meta_eccentricity": 0.0001366,
        "meta_inclination": 97.2202,
        "meta_ra_of_asc_node": 53.6177,
        "meta_arg_of_pericenter": 51.7415,
        "meta_mean_anomaly": 308.3955,
        "meta_ephemeris_type": 0,
        "meta_classification_type": "U",
        "meta_norad_cat_id": 46277,
        "meta_element_set_no": 999,
        "meta_rev_at_epoch": 29445,
        "meta_bstar": 0.00017418897,
        "meta_mean_motion_dot": 6.977e-05,
        "meta_mean_motion_ddot": 0,
        "tle_line1": "1 46277U 20061F   25354.61950491  .00006977  00000+0  17419-3 0  9992",
        "tle_line2": "2 46277  97.2202  53.6177 0001366  51.7415 308.3955 15.40477778294455"
      },
      "geometry": {
        "type": "Point",
        "coordinates": [
          -150.25904547279634,
          -72.76073305933708
        ]
      }
    },
    {
      "type": "Feature",
      "properties": {
        "norad_id": 46984,
        "name": "SENTINEL-6A",
        "group": "resource",
        "lat": 63.390687714759345,
        "lon": -97.13019551422913,
        "alt_km": 1336.480282391557,
        "timestamp": "2025-12-20T20:38:44.101901+00:00",
        "meta_object_name": "SENTINEL-6A",
        "meta_object_id": "2020-086A",
        "meta_epoch": "2025-12-20T10:44:46.006944",
        "meta_mean_motion": 12.80930851,
        "meta_eccentricity": 0.00077153,
        "meta_inclination": 66.0394,
        "meta_ra_of_asc_node": 146.2981,
        "meta_arg_of_pericenter": 269.3182,
        "meta_mean_anomaly": 90.6949,
        "meta_ephemeris_type": 0,
        "meta_classification_type": "U",
        "meta_norad_cat_id": 46984,
        "meta_element_set_no": 999,
        "meta_rev_at_epoch": 23743,
        "meta_bstar": -3.1256147e-05,
        "meta_mean_motion_dot": -6.8e-07,
        "meta_mean_motion_ddot": 0,
        "tle_line1": "1 46984U 20086A   25354.44775471 -.00000068  00000+0 -31256-4 0  9991",
        "tle_line2": "2 46984  66.0394 146.2981 0007715 269.3182  90.6949 12.80930851237436"
      },
      "geometry": {
        "type": "Point",
        "coordinates": [
          -97.13019551422913,
          63.390687714759345
        ]
      }
    },
    {
      "type": "Feature",
      "properties": {
        "norad_id": 48079,
        "name": "GAOFEN-12 02",
        "group": "resource",
        "lat": 51.960835845136295,
        "lon": -21.508395241627003,
        "alt_km": 620.2014635329315,
        "timestamp": "2025-12-20T20:38:44.101911+00:00",
        "meta_object_name": "GAOFEN-12 02",
        "meta_object_id": "2021-026A",
        "meta_epoch": "2025-12-20T13:55:16.049568",
        "meta_mean_motion": 14.80683563,
        "meta_eccentricity": 0.00036017,
        "meta_inclination": 97.9854,
        "meta_ra_of_asc_node": 348.5487,
        "meta_arg_of_pericenter": 85.3951,
        "meta_mean_anomaly": 274.7672,
        "meta_ephemeris_type": 0,
        "meta_classification_type": "U",
        "meta_norad_cat_id": 48079,
        "meta_element_set_no": 999,
        "meta_rev_at_epoch": 25533,
        "meta_bstar": 4.9119381e-05,
        "meta_mean_motion_dot": 3.25e-06,
        "meta_mean_motion_ddot": 0,
        "tle_line1": "1 48079U 21026A   25354.58004687  .00000325  00000+0  49119-4 0  9993",
        "tle_line2": "2 48079  97.9854 348.5487 0003601  85.3951 274.7672 14.80683563255339"
      },
      "geometry": {
        "type": "Point",
        "coordinates": [
          -21.508395241627003,
          51.960835845136295
        ]
      }
    },
    {
      "type": "Feature",
      "properties": {
        "norad_id": 48268,
        "name": "PLEIADES NEO 3",
        "group": "resource",
        "lat": 30.896492215616355,
        "lon": -108.05147628437,
        "alt_km": 621.9104746490584,
        "timestamp": "2025-12-20T20:38:44.101921+00:00",
        "meta_object_name": "PLEIADES NEO 3",
        "meta_object_id": "2021-034A",
        "meta_epoch": "2025-12-20T15:06:52.430400",
        "meta_mean_motion": 14.81674023,
        "meta_eccentricity": 0.00013794,
        "meta_inclination": 97.8951,
        "meta_ra_of_asc_node": 66.9581,
        "meta_arg_of_pericenter": 89.7848,
        "meta_mean_anomaly": 270.3523,
        "meta_ephemeris_type": 0,
        "meta_classification_type": "U",
        "meta_norad_cat_id": 48268,
        "meta_element_set_no": 999,
        "meta_rev_at_epoch": 25121,
        "meta_bstar": 8.829173e-05,
        "meta_mean_motion_dot": 6.43e-06,
        "meta_mean_motion_ddot": 0,
        "tle_line1": "1 48268U 21034A   25354.62977350  .00000643  00000+0  88292-4 0  9991",
        "tle_line2": "2 48268  97.8951  66.9581 0001379  89.7848 270.3523 14.81674023251217"
      },
      "geometry": {
        "type": "Point",
        "coordinates": [
          -108.05147628437,
          30.896492215616355
        ]
      }
    },
    {
      "type": "Feature",
      "properties": {
        "norad_id": 49070,
        "name": "PLEIADES NEO 4",
        "group": "resource",
        "lat": -31.063790997374973,
        "lon": 71.97627461081667,
        "alt_km": 630.5697000331047,
        "timestamp": "2025-12-20T20:38:44.101931+00:00",
        "meta_object_name": "PLEIADES NEO 4",
        "meta_object_id": "2021-073E",
        "meta_epoch": "2025-12-20T14:18:13.956768",
        "meta_mean_motion": 14.81672959,
        "meta_eccentricity": 0.00013239,
        "meta_inclination": 97.8952,
        "meta_ra_of_asc_node": 66.9208,
        "meta_arg_of_pericenter": 90.1879,
        "meta_mean_anomaly": 269.9486,
        "meta_ephemeris_type": 0,
        "meta_classification_type": "U",
        "meta_norad_cat_id": 49070,
        "meta_element_set_no": 999,
        "meta_rev_at_epoch": 23492,
        "meta_bstar": -1.0638883e-05,
        "meta_mean_motion_dot": -1.36e-06,
        "meta_mean_motion_ddot": 0,
        "tle_line1": "1 49070U 21073E   25354.59599487 -.00000136  00000+0 -10639-4 0  9992",
        "tle_line2": "2 49070  97.8952  66.9208 0001323  90.1879 269.9486 14.81672959234922"
      },
      "geometry": {
        "type": "Point",
        "coordinates": [
          71.97627461081667,
          -31.063790997374973
        ]
      }
    },
    {
      "type": "Feature",
      "properties": {
        "norad_id": 49260,
        "name": "LANDSAT 9",
        "group": "resource",
        "lat": -11.674108248450343,
        "lon": 64.56229565847266,
        "alt_km": 707.0483941512712,
        "timestamp": "2025-12-20T20:38:44.101941+00:00",
        "meta_object_name": "LANDSAT 9",
        "meta_object_id": "2021-088A",
        "meta_epoch": "2025-12-20T04:13:07.784256",
        "meta_mean_motion": 14.57105039,
        "meta_eccentricity": 0.0001104,
        "meta_inclination": 98.2085,
        "meta_ra_of_asc_node": 62.1788,
        "meta_arg_of_pericenter": 91.1503,
        "meta_mean_anomaly": 268.9822,
        "meta_ephemeris_type": 0,
        "meta_classification_type": "U",
        "meta_norad_cat_id": 49260,
        "meta_element_set_no": 999,
        "meta_rev_at_epoch": 22493,
        "meta_bstar": 7.8911172e-05,
        "meta_mean_motion_dot": 3.1e-06,
        "meta_mean_motion_ddot": 0,
        "tle_line1": "1 49260U 21088A   25354.17578454  .00000310  00000+0  78911-4 0  9993",
        "tle_line2": "2 49260  98.2085  62.1788 0001104  91.1503 268.9822 14.57105039224934"
      },
      "geometry": {
        "type": "Point",
        "coordinates": [
          64.56229565847266,
          -11.674108248450343
        ]
      }
    },
    {
      "type": "Feature",
      "properties": {
        "norad_id": 51444,
        "name": "CSG-2",
        "group": "resource",
        "lat": 15.095867690975876,
        "lon": 173.91940918324644,
        "alt_km": 623.033899129694,
        "timestamp": "2025-12-20T20:38:44.101951+00:00",
        "meta_object_name": "CSG-2",
        "meta_object_id": "2022-008A",
        "meta_epoch": "2025-12-20T14:05:45.533184",
        "meta_mean_motion": 14.82149783,
        "meta_eccentricity": 0.00014357,
        "meta_inclination": 97.8797,
        "meta_ra_of_asc_node": 175.7917,
        "meta_arg_of_pericenter": 84.2787,
        "meta_mean_anomaly": 275.8589,
        "meta_ephemeris_type": 0,
        "meta_classification_type": "U",
        "meta_norad_cat_id": 51444,
        "meta_element_set_no": 999,
        "meta_rev_at_epoch": 21013,
        "meta_bstar": 2.0494216e-05,
        "meta_mean_motion_dot": 1.11e-06,
        "meta_mean_motion_ddot": 0,
        "tle_line1": "1 51444U 22008A   25354.58733256  .00000111  00000+0  20494-4 0  9993",
        "tle_line2": "2 51444  97.8797 175.7917 0001435  84.2787 275.8589 14.82149783210131"
      },
      "geometry": {
        "type": "Point",
        "coordinates": [
          173.91940918324644,
          15.095867690975876
        ]
      }
    }
  ]
}